[{"OBJECT_NAME":"STARLINK-30066","OBJECT_ID":"2023-067S","EPOCH":"2026-03-09T21:23:24.849312","MEAN_MOTION":15.27575006,"ECCENTRICITY":0.00015432,"INCLINATION":43.0001,"RA_OF_ASC_NODE":269.6797,"ARG_OF_PERICENTER":272.4646,"MEAN_ANOMALY":87.6029,"EPHEMERIS_TYPE":0,"CLASSIFICATION_TYPE":"U","NORAD_CAT_ID":56704,"ELEMENT_SET_NO":999,"REV_AT_EPOCH":15573,"BSTAR":5.785909e-6,"MEAN_MOTION_DOT":-1.03e-6,"MEAN_MOTION_DDOT":0},{"OBJECT_NAME":"239ALFEROV (RS61S)","OBJECT_ID":"2025-155F","EPOCH":"2026-03-09T21:46:33.382848","MEAN_MOTION":15.29933217,"ECCENTRICITY":0.00084878,"INCLINATION":97.4469,"RA_OF_ASC_NODE":37.6373,"ARG_OF_PERICENTER":151.5904,"MEAN_ANOMALY":208.58,"EPHEMERIS_TYPE":0,"CLASSIFICATION_TYPE":"U","NORAD_CAT_ID":64881,"ELEMENT_SET_NO":999,"REV_AT_EPOCH":6561,"BSTAR":0.00067233359,"MEAN_MOTION_DOT":0.00019457,"MEAN_MOTION_DDOT":0}]
